[{"OBJECT_NAME":"STARLINK-2082","OBJECT_ID":"2021-005U","EPOCH":"2026-03-10T00:00:02.999808","MEAN_MOTION":15.10665418,"ECCENTRICITY":0.00013063,"INCLINATION":53.0689,"RA_OF_ASC_NODE":60.189,"ARG_OF_PERICENTER":118.0574,"MEAN_ANOMALY":150.7712,"EPHEMERIS_TYPE":0,"CLASSIFICATION_TYPE":"U","NORAD_CAT_ID":47367,"ELEMENT_SET_NO":999,"REV_AT_EPOCH":534,"BSTAR":0.0045007601,"MEAN_MOTION_DOT":0.00075839,"MEAN_MOTION_DDOT":0},{"OBJECT_NAME":"STARLING 3","OBJECT_ID":"2023-100D","EPOCH":"2026-03-09T22:41:57.048288","MEAN_MOTION":15.11145977,"ECCENTRICITY":0.00066311,"INCLINATION":99.5096,"RA_OF_ASC_NODE":65.6477,"ARG_OF_PERICENTER":76.1122,"MEAN_ANOMALY":284.0839,"EPHEMERIS_TYPE":0,"CLASSIFICATION_TYPE":"U","NORAD_CAT_ID":57389,"ELEMENT_SET_NO":999,"REV_AT_EPOCH":14507,"BSTAR":0.00051487914,"MEAN_MOTION_DOT":8.551e-5,"MEAN_MOTION_DDOT":0}]
